NORAD_CAT_ID,OBJECT_NAME,OBJECT_TYPE,EPOCH,MEAN_MOTION,ECCENTRICITY,INCLINATION,RA_OF_ASC_NODE,ARG_OF_PERICENTER,MEAN_ANOMALY,BSTAR,MEAN_MOTION_DOT,MEAN_MOTION_DDOT,TLE_LINE0,TLE_LINE1,TLE_LINE2,SEMIMAJOR_AXIS,PERIOD,APOGEE,PERIGEE,DECAYED
53171.0,STARLINK-4052,PAYLOAD,2023-11-24 06:42:41,15.08816794,0.0001459,53.2175,288.6678,111.6059,248.5088,-0.00027854,-4.715e-05,0.0,0 STARLINK-4052,1 53171U 22083AR  23328.27964977 -.00004715  00000-0 -27854-3 0  9999,2 53171  53.2175 288.6678 0001459 111.6059 248.5088 15.08816794 75500,6917.951,95.439,540.826,538.807,0.0
53171.0,STARLINK-4052,PAYLOAD,2023-11-25 03:22:42,15.08848104,0.0001233,53.2173,284.8093,56.6828,303.4282,0.00071708,0.00011145,0.0,0 STARLINK-4052,1 53171U 22083AR  23329.14077044  .00011145  00000-0  71708-3 0  9996,2 53171  53.2173 284.8093 0001233  56.6828 303.4282 15.08848104 76271,6917.856,95.437,540.574,538.868,0.0
53171.0,STARLINK-4052,PAYLOAD,2023-11-25 06:33:28,15.08836228,0.000135,53.2171,284.2093,101.2327,258.8817,0.00034773,5.25e-05,0.0,0 STARLINK-4052,1 53171U 22083AR  23329.27324977  .00005250  00000-0  34773-3 0  9991,2 53171  53.2171 284.2093 0001350 101.2327 258.8817 15.08836228 75656,6917.892,95.438,540.691,538.823,0.0
53171.0,STARLINK-4052,PAYLOAD,2023-11-25 20:51:57,15.08840179,0.0001431,53.2172,281.5307,98.951,261.1644,0.00025435,3.762e-05,0.0,0 STARLINK-4052,1 53171U 22083AR  23329.86941215  .00003762  00000-0  25435-3 0  9997,2 53171  53.2172 281.5307 0001431  98.9510 261.1644 15.08840179 75746,6917.88,95.438,540.735,538.755,0.0
53171.0,STARLINK-4052,PAYLOAD,2023-11-26 03:13:29,15.08858269,0.0002037,53.2178,280.35,77.1985,282.9234,0.00052434,8.071e-05,0.0,0 STARLINK-4052,1 53171U 22083AR  23330.13436782  .00008071  00000-0  52434-3 0  9994,2 53171  53.2178 280.3500 0002037  77.1985 282.9234 15.08858269 76423,6917.825,95.436,541.099,538.28,0.0
53171.0,STARLINK-4052,PAYLOAD,2023-11-27 03:04:18,15.08814428,0.0001539,53.2175,275.883,83.8675,276.2493,-0.00020632,-3.568e-05,0.0,0 STARLINK-4052,1 53171U 22083AR  23331.12798884 -.00003568  00000-0 -20632-3 0  9991,2 53171  53.2175 275.8830 0001539  83.8675 276.2493 15.08814428 76579,6917.959,95.439,540.888,538.759,0.0
53171.0,STARLINK-4052,PAYLOAD,2023-11-27 20:33:32,15.08838131,0.0001599,53.218,272.6137,83.7675,276.3499,8.6839e-05,1.094e-05,0.0,0 STARLINK-4052,1 53171U 22083AR  23331.85662217  .00001094  00000-0  86839-4 0  9993,2 53171  53.2180 272.6137 0001599  83.7675 276.3499 15.08838131 76041,6917.886,95.438,540.857,538.645,0.0
53171.0,STARLINK-4052,PAYLOAD,2023-11-28 02:55:04,15.08864786,0.0001854,53.2181,271.4223,105.0837,255.0361,0.00065952,0.00010231,0.0,0 STARLINK-4052,1 53171U 22083AR  23332.12157711  .00010231  00000-0  65952-3 0  9997,2 53171  53.2181 271.4223 0001854 105.0837 255.0361 15.08864786 76729,6917.805,95.436,540.952,538.387,0.0
53171.0,STARLINK-4052,PAYLOAD,2023-11-28 20:24:19,15.08832848,0.0002107,53.2175,268.1502,125.3801,234.7389,-3.5746e-05,-8.57e-06,0.0,0 STARLINK-4052,1 53171U 22083AR  23332.85023015 -.00000857  00000-0 -35746-4 0  9990,2 53171  53.2175 268.1502 0002107 125.3801 234.7389 15.08832848 76833,6917.902,95.438,541.225,538.31,0.0
53171.0,STARLINK-4052,PAYLOAD,2023-11-28 23:35:06,15.08833223,0.0001652,53.217,267.5552,108.1207,251.9965,0.00016505,2.339e-05,0.0,0 STARLINK-4052,1 53171U 22083AR  23332.98271182  .00002339  00000-0  16505-3 0  9990,2 53171  53.2170 267.5552 0001652 108.1207 251.9965 15.08833223 76210,6917.901,95.438,540.909,538.623,0.0
53171.0,STARLINK-4052,PAYLOAD,2023-11-30 01:01:15,15.08853068,0.000206,53.218,262.7999,118.0729,242.0472,1.7844e-05,-4e-08,0.0,0 STARLINK-4052,1 53171U 22083AR  23334.04254137 -.00000004  00000-0  17844-4 0  9996,2 53171  53.2180 262.7999 0002060 118.0729 242.0472 15.08853068 77018,6917.84,95.437,541.131,538.28,0.0
53171.0,STARLINK-4052,PAYLOAD,2023-12-01 02:27:26,15.08839828,0.0001635,53.2182,258.0472,80.9152,279.2025,0.00012729,1.738e-05,0.0,0 STARLINK-4052,1 53171U 22083AR  23335.10239121  .00001738  00000-0  12729-3 0  9990,2 53171  53.2182 258.0472 0001635  80.9152 279.2025 15.08839828 77179,6917.881,95.438,540.877,538.615,0.0
53171.0,STARLINK-4052,PAYLOAD,2023-12-01 05:38:12,15.08843967,0.0001495,53.2172,257.444,97.1509,262.9653,0.00018736,2.695e-05,0.0,0 STARLINK-4052,1 53171U 22083AR  23335.23486835  .00002695  00000-0  18736-3 0  9997,2 53171  53.2172 257.4440 0001495  97.1509 262.9653 15.08843967 76552,6917.868,95.437,540.767,538.699,0.0
53171.0,STARLINK-4052,PAYLOAD,2023-12-02 00:42:49,15.08869766,0.0001799,53.2184,253.8858,102.658,257.4613,0.00052777,8.128e-05,0.0,0 STARLINK-4052,1 53171U 22083AR  23336.02973424  .00008128  00000-0  52777-3 0  9990,2 53171  53.2184 253.8858 0001799 102.6580 257.4613 15.08869766 77311,6917.789,95.436,540.899,538.41,0.0
53171.0,STARLINK-4052,PAYLOAD,2023-12-02 02:18:12,15.08883606,0.0001713,53.2175,253.5858,70.4748,289.6429,0.00088267,0.00013804,0.0,0 STARLINK-4052,1 53171U 22083AR  23336.09597243  .00013804  00000-0  88267-3 0  9998,2 53171  53.2175 253.5858 0001713  70.4748 289.6429 15.08883606 77324,6917.747,95.435,540.797,538.427,0.0
53171.0,STARLINK-4052,PAYLOAD,2023-12-02 22:58:14,15.08831654,0.0001693,53.2171,249.7144,92.484,267.6346,-0.00016786,-2.958e-05,0.0,0 STARLINK-4052,1 53171U 22083AR  23336.95710830 -.00002958  00000-0 -16786-3 0  9999,2 53171  53.2171 249.7144 0001693  92.4840 267.6346 15.08831654 76812,6917.906,95.438,540.942,538.6,0.0
53171.0,STARLINK-4052,PAYLOAD,2023-12-03 03:44:23,15.0882432,0.0001575,53.2168,248.8222,111.4527,248.6634,-0.0003245,-5.446e-05,0.0,0 STARLINK-4052,1 53171U 22083AR  23337.15582944 -.00005446  00000-0 -32450-3 0  9996,2 53171  53.2168 248.8222 0001575 111.4527 248.6634 15.08824320 77483,6917.928,95.439,540.883,538.704,0.0
53171.0,STARLINK-4052,PAYLOAD,2023-12-04 00:24:24,15.08836947,0.0001583,53.2158,244.9596,115.1315,244.9841,1.5708e-05,-3.8e-07,0.0,0 STARLINK-4052,1 53171U 22083AR  23338.01695344 -.00000038  00000-0  15708-4 0  9990,2 53171  53.2158 244.9596 0001583 115.1315 244.9841 15.08836947 77610,6917.89,95.438,540.85,538.66,0.0
53171.0,STARLINK-4052,PAYLOAD,2023-12-05 03:25:57,15.08855785,0.0001952,53.2164,239.9,137.2408,222.8736,0.00054699,8.432e-05,0.0,0 STARLINK-4052,1 53171U 22083AR  23339.14302676  .00008432  00000-0  54699-3 0  9994,2 53171  53.2164 239.9000 0001952 137.2408 222.8736 15.08855785 77786,6917.832,95.437,541.048,538.347,0.0
53171.0,STARLINK-4052,PAYLOAD,2023-12-05 17:44:25,15.08845328,0.0001927,53.2192,237.2183,125.5121,234.6051,-2.2754e-05,-6.5e-06,0.0,0 STARLINK-4052,1 53171U 22083AR  23339.73918834 -.00000650  00000-0 -22754-4 0  9992,2 53171  53.2192 237.2183 0001927 125.5121 234.6051 15.08845328 77877,6917.864,95.437,541.062,538.396,0.0
53171.0,STARLINK-4052,PAYLOAD,2023-12-06 00:05:59,15.08830383,0.000205,53.2178,236.035,112.7915,247.3293,-0.0001782,-3.122e-05,0.0,0 STARLINK-4052,1 53171U 22083AR  23340.00415654 -.00003122  00000-0 -17820-3 0  9990,2 53171  53.2178 236.0350 0002050 112.7915 247.3293 15.08830383 77910,6917.91,95.438,541.193,538.357,0.0
53171.0,STARLINK-4052,PAYLOAD,2023-12-06 23:56:46,15.08799734,0.0001827,53.2176,231.5805,122.029,238.088,0.0007215,0.00011201,0.0,0 STARLINK-4052,1 53171U 22083AR  23340.99776185  .00011201  00000-0  72150-3 0  9999,2 53171  53.2176 231.5805 0001827 122.0290 238.0880 15.08799734 77423,6918.003,95.44,541.132,538.605,0.0
53171.0,STARLINK-4052,PAYLOAD,2023-12-07 19:01:24,15.08822774,0.000143,53.217,228.0078,86.0014,274.1141,0.00062663,9.694e-05,0.0,0 STARLINK-4052,1 53171U 22083AR  23341.79264354  .00009694  00000-0  62663-3 0  9999,2 53171  53.2170 228.0078 0001430  86.0014 274.1141 15.08822774 78189,6917.933,95.439,540.787,538.809,0.0
53171.0,STARLINK-4052,PAYLOAD,2023-12-08 02:58:19,15.08838662,0.0001554,53.2164,226.5219,98.42,261.6968,0.00017841,2.552e-05,0.0,0 STARLINK-4052,1 53171U 22083AR  23342.12383663  .00002552  00000-0  17841-3 0  9996,2 53171  53.2164 226.5219 0001554  98.4200 261.6968 15.08838662 78230,6917.884,95.438,540.825,538.674,0.0
53171.0,STARLINK-4052,PAYLOAD,2023-12-09 01:13:43,15.08843465,0.0001576,53.216,222.3589,96.8255,263.2917,8.1446e-05,1.009e-05,0.0,0 STARLINK-4052,1 53171U 22083AR  23343.05119309  .00001009  00000-0  81446-4 0  9992,2 53171  53.2160 222.3589 0001576  96.8255 263.2917 15.08843465 77739,6917.87,95.437,540.825,538.645,0.0
53171.0,STARLINK-4052,PAYLOAD,2023-12-10 20:09:07,15.08842963,0.0001508,53.2168,214.3299,100.8199,259.2963,4.4025e-05,4.13e-06,0.0,0 STARLINK-4052,1 53171U 22083AR  23344.83967282  .00000413  00000-0  44025-4 0  9990,2 53171  53.2168 214.3299 0001508 100.8199 259.2963 15.08842963 78643,6917.871,95.437,540.78,538.693,0.0
53171.0,STARLINK-4052,PAYLOAD,2023-12-10 21:44:31,15.08842174,0.0001533,53.2169,214.0325,109.6196,250.4962,5.7731e-05,6.31e-06,0.0,0 STARLINK-4052,1 53171U 22083AR  23344.90591442  .00000631  00000-0  57731-4 0  9999,2 53171  53.2169 214.0325 0001533 109.6196 250.4962 15.08842174 78010,6917.874,95.437,540.799,538.678,0.0
53171.0,STARLINK-4052,PAYLOAD,2023-12-11 21:35:17,15.08849219,0.0001678,53.2171,209.5731,124.2675,235.8476,0.0001156,1.553e-05,0.0,0 STARLINK-4052,1 53171U 22083AR  23345.89950677  .00001553  00000-0  11560-3 0  9990,2 53171  53.2171 209.5731 0001678 124.2675 235.8476 15.08849219 78168,6917.852,95.437,540.878,538.556,0.0
53171.0,STARLINK-4052,PAYLOAD,2023-12-12 19:50:41,15.08840763,0.0001559,53.2164,205.4042,101.5226,258.5941,4.7577e-05,4.69e-06,0.0,0 STARLINK-4052,1 53171U 22083AR  23346.82687282  .00000469  00000-0  47577-4 0  9996,2 53171  53.2164 205.4042 0001559 101.5226 258.5941 15.08840763 78948,6917.878,95.438,540.822,538.665,0.0
53171.0,STARLINK-4052,PAYLOAD,2023-12-13 21:16:51,15.08841574,0.0001693,53.2165,200.6497,112.5059,247.6113,5.9525e-05,6.59e-06,0.0,0 STARLINK-4052,1 53171U 22083AR  23347.88671036  .00000659  00000-0  59525-4 0  9990,2 53171  53.2165 200.6497 0001693 112.5059 247.6113 15.08841574 78463,6917.876,95.437,540.912,538.569,0.0
